#aV2006  3 16  0  0   .00000000      96 DD+AD WGS84 FIT  NGA
## 1366 345600.00000000   900.00000000 53810  .0000000000000
+   29     1  2  3  4  5  6  7  8  9 10 11 13 14 15 16 17 18
+         19 20 21 22 23 24 25 26 27 28 29 30  0  0  0  0  0
+          0  0  0  0  0  0  0  0  0  0  0  0  0  0  0  0  0
+          0  0  0  0  0  0  0  0  0  0  0  0  0  0  0  0  0
+          0  0  0  0  0  0  0  0  0  0  0  0  0  0  0  0  0
++         0  0  0  0  0  0  0  0  0  0  0  0  0  0  0  0  0
++         0  0  0  0  0  0  0  0  0  0  0  0  0  0  0  0  0
++         0  0  0  0  0  0  0  0  0  0  0  0  0  0  0  0  0
++         0  0  0  0  0  0  0  0  0  0  0  0  0  0  0  0  0
++         0  0  0  0  0  0  0  0  0  0  0  0  0  0  0  0  0
%c cc cc ccc ccc cccc cccc cccc cccc ccccc ccccc ccccc ccccc
%c cc cc ccc ccc cccc cccc cccc cccc ccccc ccccc ccccc ccccc
%f  0.0000000  0.000000000  0.00000000000  0.000000000000000
%f  0.0000000  0.000000000  0.00000000000  0.000000000000000
%i    0    0    0    0      0      0      0      0         0
%i    0    0    0    0      0      0      0      0         0
/*      NGA, ST. LOUIS,MO.                                  
/*   EPHEMERIS COMPUTED FROM  3 DAYS OF DATA                
/* CCCCCCCCCCCCCCCCCCCCCCCCCCCCCCCCCCCCCCCCCCCCCCCCCCCCCCCCC
/* CCCCCCCCCCCCCCCCCCCCCCCCCCCCCCCCCCCCCCCCCCCCCCCCCCCCCCCCC
*  2006  3 16 21 15   .00000000                                                 
P  1 -15285.365949  -2488.527824 -21387.283559     41.813780                    
V  1  -6656.310421 -26730.339581   7756.275294       .019691                    
P  2  21145.802174  -8188.469901 -13950.895770    -14.163712                    
V  2  -9984.960338  14409.165362 -24242.948577       .018793                    
P  3 -15412.601613   4139.847005  21084.066043     82.420764                    
V  3 -10202.008972 -25291.411889  -2171.451216       .030862                    
P  4  18195.066730   1156.781853 -19464.029924    178.762864                    
V  4 -16176.411468  18530.219790 -13694.811752       .108824                    
P  5   7395.034755 -14574.809289 -21106.411412   -341.538854                    
V  5  26089.365205   4533.707067   6232.905473       .778861                    
P  6  -5814.644968 -25560.278891  -3806.468505    406.904131                    
V  6   5147.251790   3619.441279 -30704.776764       .286962                    
P  7  -6199.204217 -25389.387038  -4175.693718    514.365183                    
V  7   5452.292086   4134.230716 -30657.421804       .063805                    
P  8  11322.863800   9752.090742  21821.580880    -59.659246                    
V  8 -19915.548859  19701.324819   1129.721121      -.012033                    
P  9  14202.521584 -21820.982307  -4918.733618     12.106182                    
V  9   5928.669919  -2326.567030  31089.212674       .017382                    
P 10  23473.073461  -2740.404676  12341.131699     80.252147                    
V 10  14773.920267   5527.571789 -26368.908938       .006164                    
P 11 -11887.661356  23219.919869  -4318.131993    313.949054                    
V 11  -7146.731613   1750.202254  29777.907193       .026304                    
P 13   5848.918209  25857.069134  -2180.525285     47.919088                    
V 13  -2434.227929  -2074.373332 -32222.270760       .025708                    
P 14 -14768.119410 -16998.744105 -14051.316301    -17.719314                    
V 14  -3609.208907 -17598.108803  24917.144600       .007062                    
P 15 -10834.633259 -10695.614605  21600.038556    581.391054                    
V 15  20482.162379 -18852.605787    554.466316       .060676                    
P 16 -25786.541525  -1465.650419   6491.923558     31.492297                    
V 16  -7301.110175  -4356.148721 -30291.303567       .020341                    
P 17  14875.625634  18029.224126 -12714.630974     68.978078                    
V 17   2619.322898  16024.020109  25738.146028       .061464                    
P 18 -11013.905417 -16232.844043  18135.379668   -226.061934                    
V 18  22293.559138   4672.178711  17524.555227      -.019746                    
P 19  -9243.096644  16791.792329  18471.669763    -18.668651                    
V 19  -7015.127460 -22236.809919  16832.767379       .012479                    
P 20  -7309.738633  13875.532514 -21522.910634    -30.537734                    
V 20 -26399.863601  -6260.594048   4986.062019       .008162                    
P 21  -2877.695481 -17368.389654  19782.016407     13.904169                    
V 21  18972.974600 -16708.502212 -12448.606189       .031392                    
P 22 -22075.885113 -12339.281584   8269.188130     76.674362                    
V 22  10645.129839    209.600034  29277.269182       .035264                    
P 23  -2395.079543  22898.585149 -13194.707369    146.959687                    
V 23  -7001.456424 -15264.866828 -25541.450533      -.012396                    
P 24   7078.842937  13856.778622 -21260.382547     93.288689                    
V 24 -20220.764373  18777.736589   5691.300237       .029434                    
P 25 -18755.161409   3169.874230 -18183.335720    -22.554241                    
V 25  13246.936192 -19965.219675 -16656.642433       .234184                    
P 26  10491.759906 -12393.813159  20499.826304    -61.389286                    
V 26   8320.693697  25676.825252  11638.968474      -.096124                    
P 27   3676.500698  17683.217007  19960.007247     40.108025                    
V 27 -16334.318254  17868.461982 -13568.595636       .017011                    
P 28  20214.525221  13339.135105  11574.273892     31.376930                    
V 28 -14236.581802  -1382.417601  26767.878109      -.008059                    
P 29  12491.951938  -8683.737691  21984.536780    562.244107                    
V 29   8729.280814  25863.603291   5572.277202       .101479                    
P 30  -3625.520980 -16191.615733 -21038.823305     27.789965                    
V 30  25785.802995   4207.005886  -7669.341019      -.001520                    
EOF
